NORAD_CAT_ID,OBJECT_NAME,OBJECT_TYPE,EPOCH,MEAN_MOTION,ECCENTRICITY,INCLINATION,RA_OF_ASC_NODE,ARG_OF_PERICENTER,MEAN_ANOMALY,BSTAR,MEAN_MOTION_DOT,MEAN_MOTION_DDOT,TLE_LINE0,TLE_LINE1,TLE_LINE2,SEMIMAJOR_AXIS,PERIOD,APOGEE,PERIGEE,DECAYED
54084.0,STARLINK-5183,PAYLOAD,2023-02-19 09:46:25,15.08863066,0.000136,53.2156,296.4405,57.2832,302.8292,0.00052921,8.15e-05,0.0,0 STARLINK-5183,1 54084U 22136AK  23050.40723981  .00008150  00000-0  52921-3 0  9995,2 54084  53.2156 296.4405 0001360  57.2832 302.8292 15.08863066 18763,6917.81,95.436,540.616,538.734,0.0
54084.0,STARLINK-5183,PAYLOAD,2023-02-19 16:07:57,15.08858334,0.0001537,53.2153,295.2521,59.8964,300.218,0.00016544,2.347e-05,0.0,0 STARLINK-5183,1 54084U 22136AK  23050.67219892  .00002347  00000-0  16544-3 0  9998,2 54084  53.2153 295.2521 0001537  59.8964 300.2180 15.08858334 19284,6917.824,95.436,540.753,538.626,0.0
54084.0,STARLINK-5183,PAYLOAD,2023-02-20 09:37:12,15.08854492,0.0001109,53.2155,291.9798,59.3699,300.7403,0.0005251,8.082e-05,0.0,0 STARLINK-5183,1 54084U 22136AK  23051.40083407  .00008082  00000-0  52510-3 0  9996,2 54084  53.2155 291.9798 0001109  59.3699 300.7403 15.08854492 18913,6917.836,95.437,540.468,538.934,0.0
54084.0,STARLINK-5183,PAYLOAD,2023-02-20 22:20:17,15.08844904,0.0001234,53.2158,289.6011,74.1679,285.9449,-2.8968e-06,-3.34e-06,0.0,0 STARLINK-5183,1 54084U 22136AK  23051.93075604 -.00000334  00000-0 -28968-5 0  9990,2 54084  53.2158 289.6011 0001234  74.1679 285.9449 15.08844904 19473,6917.865,95.437,540.584,538.877,0.0
54084.0,STARLINK-5183,PAYLOAD,2023-02-21 01:31:03,15.08847184,0.0001265,53.2157,289.0058,74.5137,285.5995,1.6467e-05,-2.6e-07,0.0,0 STARLINK-5183,1 54084U 22136AK  23052.06323537 -.00000026  00000-0  16467-4 0  9993,2 54084  53.2157 289.0058 0001265  74.5137 285.5995 15.08847184 19019,6917.858,95.437,540.599,538.848,0.0
54084.0,STARLINK-5183,PAYLOAD,2023-02-21 22:11:03,15.08856152,0.0001258,53.2149,285.1392,80.9252,279.1882,0.00034163,5.156e-05,0.0,0 STARLINK-5183,1 54084U 22136AK  23052.92435030  .00005156  00000-0  34163-3 0  9990,2 54084  53.2149 285.1392 0001258  80.9252 279.1882 15.08856152 19142,6917.831,95.437,540.566,538.826,0.0
54084.0,STARLINK-5183,PAYLOAD,2023-02-22 01:21:50,15.08857975,0.0001246,53.2154,284.5449,82.0964,278.017,0.00043591,6.66e-05,0.0,0 STARLINK-5183,1 54084U 22136AK  23053.05682946  .00006660  00000-0  43591-3 0  9991,2 54084  53.2154 284.5449 0001246  82.0964 278.0170 15.08857975 19641,6917.825,95.436,540.552,538.828,0.0
54084.0,STARLINK-5183,PAYLOAD,2023-02-22 15:40:19,15.08831466,0.0001072,53.2147,281.8682,88.7672,271.3443,-0.00010138,-1.9e-05,0.0,0 STARLINK-5183,1 54084U 22136AK  23053.65299925 -.00001900  00000-0 -10138-3 0  9993,2 54084  53.2147 281.8682 0001072  88.7672 271.3443 15.08831466 19734,6917.906,95.438,540.513,539.03,0.0
54084.0,STARLINK-5183,PAYLOAD,2023-02-22 22:01:51,15.08836061,0.0001092,53.2147,280.6786,92.2688,267.8429,3.7424e-05,3.08e-06,0.0,0 STARLINK-5183,1 54084U 22136AK  23053.91795918  .00000308  00000-0  37424-4 0  9992,2 54084  53.2147 280.6786 0001092  92.2688 267.8429 15.08836061 19296,6917.892,95.438,540.513,539.002,0.0
54084.0,STARLINK-5183,PAYLOAD,2023-02-23 13:55:43,15.08840294,0.0001117,53.2154,277.705,98.4201,261.6918,0.00038585,5.858e-05,0.0,0 STARLINK-5183,1 54084U 22136AK  23054.58036126  .00005858  00000-0  38585-3 0  9998,2 54084  53.2154 277.7050 0001117  98.4201 261.6918 15.08840294 19391,6917.879,95.438,540.517,538.972,0.0
54084.0,STARLINK-5183,PAYLOAD,2023-02-23 21:52:38,15.08848899,0.0001148,53.2152,276.2183,100.6205,259.4916,0.0006558,0.00010167,0.0,0 STARLINK-5183,1 54084U 22136AK  23054.91156015  .00010167  00000-0  65580-3 0  9999,2 54084  53.2152 276.2183 0001148 100.6205 259.4916 15.08848899 19442,6917.853,95.437,540.512,538.924,0.0
54084.0,STARLINK-5183,PAYLOAD,2023-02-23 23:28:01,15.08852321,0.0001141,53.2153,275.9208,98.992,261.1201,0.00074995,0.00011672,0.0,0 STARLINK-5183,1 54084U 22136AK  23054.97779951  .00011672  00000-0  74995-3 0  9997,2 54084  53.2153 275.9208 0001141  98.9920 261.1201 15.08852321 19939,6917.843,95.437,540.497,538.918,0.0
54084.0,STARLINK-5183,PAYLOAD,2023-02-24 20:08:02,15.08844511,0.000108,53.2152,272.055,104.5767,255.5345,0.00024631,3.635e-05,0.0,0 STARLINK-5183,1 54084U 22136AK  23055.83891965  .00003635  00000-0  24631-3 0  9995,2 54084  53.2152 272.0550 0001080 104.5767 255.5345 15.08844511 19580,6917.867,95.437,540.479,538.984,0.0
54084.0,STARLINK-5183,PAYLOAD,2023-02-24 23:18:49,15.08838707,0.0001243,53.2154,271.4599,86.9431,273.1703,6.1365e-05,6.89e-06,0.0,0 STARLINK-5183,1 54084U 22136AK  23055.97140173  .00000689  00000-0  61365-4 0  9990,2 54084  53.2154 271.4599 0001243  86.9431 273.1703 15.08838707 20081,6917.884,95.438,540.609,538.889,0.0
54084.0,STARLINK-5183,PAYLOAD,2023-02-25 00:54:12,15.08839554,0.0001202,53.2155,271.162,85.4298,274.6831,5.7454e-05,6.27e-06,0.0,0 STARLINK-5183,1 54084U 22136AK  23056.03764176  .00000627  00000-0  57454-4 0  9999,2 54084  53.2155 271.1620 0001202  85.4298 274.6831 15.08839554 19610,6917.882,95.438,540.578,538.915,0.0
54084.0,STARLINK-5183,PAYLOAD,2023-02-25 19:58:49,15.08841501,0.0001131,53.2154,267.5937,86.6122,273.4999,7.1719e-05,8.54e-06,0.0,0 STARLINK-5183,1 54084U 22136AK  23056.83252192  .00000854  00000-0  71719-4 0  9999,2 54084  53.2154 267.5937 0001131  86.6122 273.4999 15.08841501 19739,6917.876,95.437,540.523,538.958,0.0
54084.0,STARLINK-5183,PAYLOAD,2023-02-26 13:28:04,15.08846026,0.0001168,53.2164,264.3218,86.8598,273.2528,0.00020221,2.932e-05,0.0,0 STARLINK-5183,1 54084U 22136AK  23057.56116037  .00002932  00000-0  20221-3 0  9997,2 54084  53.2164 264.3218 0001168  86.8598 273.2528 15.08846026 19841,6917.862,95.437,540.535,538.919,0.0
54084.0,STARLINK-5183,PAYLOAD,2023-02-26 19:49:36,15.08851302,0.0001054,53.2154,263.1325,98.5847,261.5265,0.00025869,3.833e-05,0.0,0 STARLINK-5183,1 54084U 22136AK  23057.82611615  .00003833  00000-0  25869-3 0  9992,2 54084  53.2154 263.1325 0001054  98.5847 261.5265 15.08851302 20367,6917.846,95.437,540.44,538.982,0.0
54084.0,STARLINK-5183,PAYLOAD,2023-02-27 00:35:45,15.08859992,0.0001188,53.216,262.2408,86.2668,273.846,0.0003762,5.708e-05,0.0,0 STARLINK-5183,1 54084U 22136AK  23058.02483169  .00005708  00000-0  37620-3 0  9997,2 54084  53.2160 262.2408 0001188  86.2668 273.8460 15.08859992 20398,6917.819,95.436,540.506,538.862,0.0
54084.0,STARLINK-5183,PAYLOAD,2023-02-27 19:40:23,15.0886411,0.0001281,53.2151,258.6729,91.3213,268.7926,0.0005665,8.745e-05,0.0,0 STARLINK-5183,1 54084U 22136AK  23058.81971149  .00008745  00000-0  56650-3 0  9992,2 54084  53.2151 258.6729 0001281  91.3213 268.7926 15.08864110 20512,6917.807,95.436,540.558,538.786,0.0
54084.0,STARLINK-5183,PAYLOAD,2023-02-28 13:09:38,15.08825932,0.0001046,53.2156,255.4016,100.7589,259.3521,0.00015367,2.158e-05,0.0,0 STARLINK-5183,1 54084U 22136AK  23059.54836171  .00002158  00000-0  15367-3 0  9990,2 54084  53.2156 255.4016 0001046 100.7589 259.3521 15.08825932 20146,6917.923,95.438,540.512,539.065,0.0
54084.0,STARLINK-5183,PAYLOAD,2023-02-28 21:06:34,15.08825801,0.0001133,53.216,253.9149,104.6067,255.5051,0.00025827,3.823e-05,0.0,0 STARLINK-5183,1 54084U 22136AK  23059.87956567  .00003823  00000-0  25827-3 0  9990,2 54084  53.2160 253.9149 0001133 104.6067 255.5051 15.08825801 20198,6917.924,95.438,540.573,539.005,0.0
54084.0,STARLINK-5183,PAYLOAD,2023-03-01 19:21:58,15.08851515,0.0001002,53.2157,249.7515,103.5472,256.5632,0.00092046,0.00014396,0.0,0 STARLINK-5183,1 54084U 22136AK  23060.80692648  .00014396  00000-0  92046-3 0  9996,2 54084  53.2157 249.7515 0001002 103.5472 256.5632 15.08851515 20813,6917.845,95.437,540.403,539.017,0.0
54084.0,STARLINK-5183,PAYLOAD,2023-03-02 19:12:45,15.08846689,0.0001399,53.2161,245.2927,99.0888,261.0262,0.00031857,4.787e-05,0.0,0 STARLINK-5183,1 54084U 22136AK  23061.80052613  .00004787  00000-0  31857-3 0  9995,2 54084  53.2161 245.2927 0001399  99.0888 261.0262 15.08846689 20484,6917.86,95.437,540.693,538.757,0.0
54084.0,STARLINK-5183,PAYLOAD,2023-03-03 11:06:36,15.0885206,0.0001149,53.2149,242.3183,94.1042,266.0081,0.00034911,5.274e-05,0.0,0 STARLINK-5183,1 54084U 22136AK  23062.46292364  .00005274  00000-0  34911-3 0  9993,2 54084  53.2149 242.3183 0001149  94.1042 266.0081 15.08852060 21062,6917.844,95.437,540.503,538.914,0.0
54084.0,STARLINK-5183,PAYLOAD,2023-03-03 12:41:59,15.08848626,0.0001209,53.2144,242.021,94.9487,265.1643,0.00034045,5.136e-05,0.0,0 STARLINK-5183,1 54084U 22136AK  23062.52916470  .00005136  00000-0  34045-3 0  9996,2 54084  53.2144 242.0210 0001209  94.9487 265.1643 15.08848626 20597,6917.854,95.437,540.555,538.883,0.0
54084.0,STARLINK-5183,PAYLOAD,2023-03-03 19:03:32,15.0885594,0.0001216,53.2145,240.8318,94.7203,265.3928,0.00052365,8.059e-05,0.0,0 STARLINK-5183,1 54084U 22136AK  23062.79412156  .00008059  00000-0  52365-3 0  9999,2 54084  53.2145 240.8318 0001216  94.7203 265.3928 15.08855940 20635,6917.832,95.437,540.538,538.855,0.0
54084.0,STARLINK-5183,PAYLOAD,2023-03-04 10:57:23,15.08841289,0.000167,53.2143,237.8582,86.9016,273.2167,7.5216e-05,9.09e-06,0.0,0 STARLINK-5183,1 54084U 22136AK  23063.45652567  .00000909  00000-0  75216-4 0  9992,2 54084  53.2143 237.8582 0001670  86.9016 273.2167 15.08841289 21210,6917.876,95.437,540.897,538.586,0.0
54084.0,STARLINK-5183,PAYLOAD,2023-03-04 17:18:56,15.08833927,0.0001376,53.2145,236.6685,87.1167,272.9983,-8.9966e-05,-1.719e-05,0.0,0 STARLINK-5183,1 54084U 22136AK  23063.72148802 -.00001719  00000-0 -89966-4 0  9993,2 54084  53.2145 236.6685 0001376  87.1167 272.9983 15.08833927 20778,6917.899,95.438,540.716,538.812,0.0
54084.0,STARLINK-5183,PAYLOAD,2023-03-05 04:26:38,15.08835609,0.0001262,53.2143,234.5868,93.4625,266.6511,-9.3536e-06,-4.37e-06,0.0,0 STARLINK-5183,1 54084U 22136AK  23064.18516873 -.00000437  00000-0 -93536-5 0  9996,2 54084  53.2143 234.5868 0001262  93.4625 266.6511 15.08835609 21327,6917.894,95.438,540.632,538.886,0.0
